$$SOE
2459580.500000000, A.D. 2022-Jan-01 00:00:00.0000, -5.388098992435848E+08, -1.783179095827443E+08, 5.726770153410032E+06,
2459587.500000000, A.D. 2022-Jan-08 00:00:00.0000, -5.351781016246277E+08, -1.863026568330014E+08, 6.785080863174565E+06,
2459594.500000000, A.D. 2022-Jan-15 00:00:00.0000, -5.314036169981849E+08, -1.942377028794728E+08, 7.841582697952740E+06,
2459601.500000000, A.D. 2022-Jan-22 00:00:00.0000, -5.274867896575898E+08, -2.021206918408383E+08, 8.895983755396225E+06,
2459608.500000000, A.D. 2022-Jan-29 00:00:00.0000, -5.234279961540965E+08, -2.099492540257703E+08, 9.947989937417820E+06,
2459615.500000000, A.D. 2022-Feb-05 00:00:00.0000, -5.192276481645668E+08, -2.177210067364323E+08, 1.099730509433645E+07,
2459622.500000000, A.D. 2022-Feb-12 00:00:00.0000, -5.148861932031829E+08, -2.254335561592055E+08, 1.204363088561097E+07,
2459629.500000000, A.D. 2022-Feb-19 00:00:00.0000, -5.104041145020561E+08, -2.330844979739565E+08, 1.308666667236455E+07,
2459636.500000000, A.D. 2022-Feb-26 00:00:00.0000, -5.057819313715749E+08, -2.406714174053895E+08, 1.412610950286290E+07,
2459643.500000000, A.D. 2022-Mar-05 00:00:00.0000, -5.010201998809050E+08, -2.481918893342142E+08, 1.516165412578122E+07,
2459650.500000000, A.D. 2022-Mar-12 00:00:00.0000, -4.961195136366165E+08, -2.556434785345574E+08, 1.619299300537904E+07,
2459657.500000000, A.D. 2022-Mar-19 00:00:00.0000, -4.910805045879014E+08, -2.630237400101250E+08, 1.721981633419216E+07,
2459664.500000000, A.D. 2022-Mar-26 00:00:00.0000, -4.859038438352155E+08, -2.703302194357794E+08, 1.824181204053420E+07,
2459671.500000000, A.D. 2022-Apr-02 00:00:00.0000, -4.805902423738834E+08, -2.775604537614787E+08, 1.925866577985764E+07,
2459678.500000000, A.D. 2022-Apr-09 00:00:00.0000, -4.751404515003375E+08, -2.847119719750512E+08, 2.027006088529536E+07,
2459685.500000000, A.D. 2022-Apr-16 00:00:00.0000, -4.695552625238853E+08, -2.917822953709071E+08, 2.127567829801966E+07,
2459692.500000000, A.D. 2022-Apr-23 00:00:00.0000, -4.638355070526822E+08, -2.987689362412789E+08, 2.227519668241136E+07,
2459699.500000000, A.D. 2022-Apr-30 00:00:00.0000, -4.579820597235999E+08, -3.056693972363157E+08, 2.326829271410598E+07,
2459706.500000000, A.D. 2022-May-07 00:00:00.0000, -4.519958403132640E+08, -3.124811733680679E+08, 2.425464109880084E+07,
2459713.500000000, A.D. 2022-May-14 00:00:00.0000, -4.458778138408652E+08, -3.192017536211867E+08, 2.523391444286940E+07,
2459720.500000000, A.D. 2022-May-21 00:00:00.0000, -4.396289906929262E+08, -3.258286214122520E+08, 2.620578322429766E+07,
2459727.500000000, A.D. 2022-May-28 00:00:00.0000, -4.332504272475392E+08, -3.323592548575510E+08, 2.716991582966180E+07,
2459734.500000000, A.D. 2022-Jun-04 00:00:00.0000, -4.267432267199673E+08, -3.387911271636722E+08, 2.812597860632353E+07,
2459741.500000000, A.D. 2022-Jun-11 00:00:00.0000, -4.201085400843169E+08, -3.451217071403461E+08, 2.907363591697438E+07,
2459748.500000000, A.D. 2022-Jun-18 00:00:00.0000, -4.133475670320916E+08, -3.513484598236220E+08, 3.001255019434886E+07,
2459755.500000000, A.D. 2022-Jun-25 00:00:00.0000, -4.064615569375437E+08, -3.574688472436905E+08, 3.094238199101222E+07,
2459762.500000000, A.D. 2022-Jul-02 00:00:00.0000, -3.994518096949162E+08, -3.634803294041190E+08, 3.186279000688428E+07,
2459769.500000000, A.D. 2022-Jul-09 00:00:00.0000, -3.923196760362602E+08, -3.693803652965385E+08, 3.277343107351014E+07,
2459776.500000000, A.D. 2022-Jul-16 00:00:00.0000, -3.850665573837180E+08, -3.751664128689194E+08, 3.367396018897991E+07,
2459783.500000000, A.D. 2022-Jul-23 00:00:00.0000, -3.776939074329482E+08, -3.808359278706957E+08, 3.456403081181915E+07,
2459790.500000000, A.D. 2022-Jul-30 00:00:00.0000, -3.702032353818548E+08, -3.863863649302963E+08, 3.544329513239369E+07,
2459797.500000000, A.D. 2022-Aug-06 00:00:00.0000, -3.625961072048307E+08, -3.918151802190638E+08, 3.631140404517761E+07,
2459804.500000000, A.D. 2022-Aug-13 00:00:00.0000, -3.548741457947070E+08, -3.971198329485434E+08, 3.716800712305591E+07,
2459811.500000000, A.D. 2022-Aug-20 00:00:00.0000, -3.470390315400335E+08, -4.022977862054160E+08, 3.801275269694333E+07,
2459818.500000000, A.D. 2022-Aug-27 00:00:00.0000, -3.390925032673588E+08, -4.073465078516926E+08, 3.884528797546755E+07,
2459825.500000000, A.D. 2022-Sep-03 00:00:00.0000, -3.310363592983503E+08, -4.122634716021778E+08, 3.966525917326492E+07,
2459832.500000000, A.D. 2022-Sep-10 00:00:00.0000, -3.228724585295823E+08, -4.170461582570055E+08, 4.047231164190760E+07,
2459839.500000000, A.D. 2022-Sep-17 00:00:00.0000, -3.146027215036259E+08, -4.216920570926718E+08, 4.126609000092597E+07,
2459846.500000000, A.D. 2022-Sep-24 00:00:00.0000, -3.062291314089768E+08, -4.261986674639794E+08, 4.204623825947581E+07,
2459853.500000000, A.D. 2022-Oct-01 00:00:00.0000, -2.977537347666573E+08, -4.305635006406223E+08, 4.281239990497693E+07,
2459860.500000000, A.D. 2022-Oct-08 00:00:00.0000, -2.891786413938741E+08, -4.347840813576648E+08, 4.356421796412259E+07,
2459867.500000000, A.D. 2022-Oct-15 00:00:00.0000, -2.805060245740258E+08, -4.388579478817533E+08, 4.430133521973136E+07,
2459874.500000000, A.D. 2022-Oct-22 00:00:00.0000, -2.717381236116490E+08, -4.427826522778126E+08, 4.502339464583360E+07,
2459881.500000000, A.D. 2022-Oct-29 00:00:00.0000, -2.628772462715596E+08, -4.465557634711272E+08, 4.573003961986908E+07,
2459888.500000000, A.D. 2022-Nov-05 00:00:00.0000, -2.539257690005681E+08, -4.501748703650585E+08, 4.642091394353740E+07,
2459895.500000000, A.D. 2022-Nov-12 00:00:00.0000, -2.448861368940252E+08, -4.536375837473154E+08, 4.709566195611620E+07,
2459902.500000000, A.D. 2022-Nov-19 00:00:00.0000, -2.357608641229921E+08, -4.569415379381799E+08, 4.775392872809441E+07,
2459909.500000000, A.D. 2022-Nov-26 00:00:00.0000, -2.265525345553311E+08, -4.600843925774611E+08, 4.839536027831681E+07,
2459916.500000000, A.D. 2022-Dec-03 00:00:00.0000, -2.172638023997964E+08, -4.630638345619867E+08, 4.901960379825200E+07,
2459923.500000000, A.D. 2022-Dec-10 00:00:00.0000, -2.078973928230236E+08, -4.658775801161771E+08, 4.962630788075653E+07,
2459930.500000000, A.D. 2022-Dec-17 00:00:00.0000, -1.984561025108515E+08, -4.685233770222802E+08, 5.021512274930532E+07,
2459937.500000000, A.D. 2022-Dec-24 00:00:00.0000, -1.889428000612634E+08, -4.709990070772603E+08, 5.078570047267893E+07,
2459944.500000000, A.D. 2022-Dec-31 00:00:00.0000, -1.793604258480324E+08, -4.733022886692094E+08, 5.133769514147165E+07,
2459951.500000000, A.D. 2023-Jan-07 00:00:00.0000, -1.697119912287751E+08, -4.754310785104401E+08, 5.187076307407814E+07,
2459958.500000000, A.D. 2023-Jan-14 00:00:00.0000, -1.600005790602635E+08, -4.773832720291054E+08, 5.238456327326125E+07,
2459965.500000000, A.D. 2023-Jan-21 00:00:00.0000, -1.502293461607149E+08, -4.791568055903503E+08, 5.287875793306890E+07,
2459972.500000000, A.D. 2023-Jan-28 00:00:00.0000, -1.404015240459128E+08, -4.807496607417138E+08, 5.335301264371370E+07,
2459979.500000000, A.D. 2023-Feb-04 00:00:00.0000, -1.305204181431054E+08, -4.821598674543883E+08, 5.380699656118271E+07,
2459986.500000000, A.D. 2023-Feb-11 00:00:00.0000, -1.205894072733236E+08, -4.833855065522924E+08, 5.424038269055901E+07,
2459993.500000000, A.D. 2023-Feb-18 00:00:00.0000, -1.106119434604601E+08, -4.844247121497725E+08, 5.465284822158900E+07,
2460000.500000000, A.D. 2023-Feb-25 00:00:00.0000, -1.005915517991050E+08, -4.852756742569432E+08, 5.504407487909147E+07,
2460007.500000000, A.D. 2023-Mar-04 00:00:00.0000, -9.053183027345073E+07, -4.859366415308674E+08, 5.541374928025009E+07,
2460014.500000000, A.D. 2023-Mar-11 00:00:00.0000, -8.043644949302970E+07, -4.864059241690678E+08, 5.576156329613441E+07,
2460021.500000000, A.D. 2023-Mar-18 00:00:00.0000, -7.030915229273133E+07, -4.866818969918095E+08, 5.608721440910925E+07,
2460028.500000000, A.D. 2023-Mar-25 00:00:00.0000, -6.015375298854841E+07, -4.867630027570614E+08, 5.639040604369211E+07,
2460035.500000000, A.D. 2023-Apr-01 00:00:00.0000, -4.997413585949537E+07, -4.866477553109783E+08, 5.667084786409248E+07,
2460042.500000000, A.D. 2023-Apr-08 00:00:00.0000, -3.977425346622560E+07, -4.863347413444783E+08, 5.692825619487551E+07,
2460049.500000000, A.D. 2023-Apr-15 00:00:00.0000, -2.955812713838596E+07, -4.858226218565921E+08, 5.716235468832451E+07,
2460056.500000000, A.D. 2023-Apr-22 00:00:00.0000, -1.932984781601013E+07, -4.851101363707930E+08, 5.737287482257414E+07,
2460063.500000000, A.D. 2023-Apr-29 00:00:00.0000, -9.093574504564278E+06, -4.841961076465569E+08, 5.755955616335288E+07,
2460070.500000000, A.D. 2023-May-06 00:00:00.0000, 1.146467900699280E+06, -4.830794450999387E+08, 5.772214669598500E+07,
2460077.500000000, A.D. 2023-May-13 00:00:00.0000, 1.138599044850799E+07, -4.817591478206552E+08, 5.786040324363092E+07,
2460084.500000000, A.D. 2023-May-20 00:00:00.0000, 2.162064186164628E+07, -4.802343076700250E+08, 5.797409190935010E+07,
2460091.500000000, A.D. 2023-May-27 00:00:00.0000, 3.184601036066316E+07, -4.785041124819429E+08, 5.806298852084947E+07,
2460098.500000000, A.D. 2023-Jun-03 00:00:00.0000, 4.205762564247875E+07, -4.765678493331757E+08, 5.812687907362518E+07,
2460105.500000000, A.D. 2023-Jun-10 00:00:00.0000, 5.225096104123515E+07, -4.744249078887790E+08, 5.816556016801082E+07,
2460112.500000000, A.D. 2023-Jun-17 00:00:00.0000, 6.242143596364634E+07, -4.720747838747897E+08, 5.817883942595828E+07,
2460119.500000000, A.D. 2023-Jun-24 00:00:00.0000, 7.256441892135774E+07, -4.695170826145508E+08, 5.816653586174516E+07,
2460126.500000000, A.D. 2023-Jul-01 00:00:00.0000, 8.267523141507849E+07, -4.667515217921070E+08, 5.812848025004892E+07,
2460133.500000000, A.D. 2023-Jul-08 00:00:00.0000, 9.274915099715734E+07, -4.637779326110536E+08, 5.806451571087523E+07,
2460140.500000000, A.D. 2023-Jul-15 00:00:00.0000, 1.027814122360492E+08, -4.605962621673461E+08, 5.797449839553553E+07,
$$EOE